FLOCK 4BE-27            
1 60513U 24149AX  26068.75339182  .00011439  00000+0  36576-3 0  9992
2 60513  97.3862 150.6783 0002732 305.8980  54.2008 15.32593322 86906
STARLINK-34867          
1 65459U 25195B   26068.75504679  .00025341  00000+0  86453-3 0  9999
2 65459  53.1560 257.8795 0001220 122.2141 237.8979 15.30209726 30005
